ONEWEB-0534             
1 55797U 23029B   23225.58334491 -.00725049  00000+0 -95780-1 0  9998
2 55797  86.5661 129.7393 0001665  80.9571 130.7379 14.82815412 24067
ONEWEB-0556             
1 55798U 23029C   23225.91667824 -.00864744  00000+0 -11203+0 0  9997
2 55798  86.5629 129.6423 0001542 112.1284 180.8002 14.83658163 24112
ONEWEB-0562             
1 55799U 23029D   23225.25001157 -.00838246  00000+0 -10593+0 0  9995
2 55799  86.5538 129.8882 0001211 102.9516  91.0296 14.84600910 24005
ONEWEB-0563             
1 55800U 23029E   23225.25001157 -.00855346  00000+0 -11218+0 0  9993
2 55800  86.5682 129.9824 0001400  53.7113 159.9240 14.83122676 24001
ONEWEB-0564             
1 55801U 23029F   23225.58334491 -.00740646  00000+0 -98363-1 0  9994
2 55801  86.5669 129.7401 0001808 113.1384 157.3040 14.82651709 24080
ONEWEB-0638             
1 55802U 23029G   23225.25001157 -.00662736  00000+0 -92529+0 0  9998
2 55802  87.5297 137.1322 0004301 344.8836   0.7881 13.60550992 23530
ONEWEB-0639             
1 55803U 23029H   23225.26500231  .00000121  00000+0  27034-3 0  9992
2 55803  87.9180 151.6991 0002171 122.3233 237.8111 13.19724733 22563
ONEWEB-0640             
1 55804U 23029J   23225.91667824  .00000015  00000+0  00000+0 0  9999
2 55804  87.4785 137.1208 0003817  27.6648 244.0981 13.60592035 23611
